STARLINK-31611          
1 59325U 24057F   26067.63887757 -.00000194  00000+0  24895-5 0  9991
2 59325  42.9971 193.4134 0001426 288.4796  71.5901 15.27577803109671
BANDWAGON-4 OBJECT M    
1 66304U 25248M   26068.03503276  .00023645  00000+0  95704-3 0  9995
2 66304  45.4108 294.9904 0012944 207.5285 152.4918 15.24295413 18037
